[
    {
        "CCSDS_OMM_VERS": "3.0",
        "COMMENT": "GENERATED VIA SPACE-TRACK.ORG API",
        "CREATION_DATE": "2025-05-03T23:06:31",
        "ORIGINATOR": "18 SPCS",
        "OBJECT_NAME": "BEIDOU 3M3",
        "OBJECT_ID": "2018-003A",
        "CENTER_NAME": "EARTH",
        "REF_FRAME": "TEME",
        "TIME_SYSTEM": "UTC",
        "MEAN_ELEMENT_THEORY": "SGP4",
        "EPOCH": "2025-05-03T02:53:33.664128",
        "MEAN_MOTION": "1.86232483",
        "ECCENTRICITY": "0.00050000",
        "INCLINATION": "54.6875",
        "RA_OF_ASC_NODE": "316.5747",
        "ARG_OF_PERICENTER": "75.8002",
        "MEAN_ANOMALY": "284.2590",
        "EPHEMERIS_TYPE": "0",
        "CLASSIFICATION_TYPE": "U",
        "NORAD_CAT_ID": "43107",
        "ELEMENT_SET_NO": "999",
        "REV_AT_EPOCH": "4972",
        "BSTAR": "0.00000000000000",
        "MEAN_MOTION_DOT": "-0.00000069",
        "MEAN_MOTION_DDOT": "0.0000000000000",
        "SEMIMAJOR_AXIS": "27906.040",
        "PERIOD": "773.227",
        "APOAPSIS": "21541.858",
        "PERIAPSIS": "21513.952",
        "OBJECT_TYPE": "PAYLOAD",
        "RCS_SIZE": "LARGE",
        "COUNTRY_CODE": "PRC",
        "LAUNCH_DATE": "2018-01-11",
        "SITE": "XSC",
        "DECAY_DATE": null,
        "FILE": "4718252",
        "GP_ID": "286782343",
        "TLE_LINE0": "0 BEIDOU 3M3",
        "TLE_LINE1": "1 43107U 18003A   25123.12052852 -.00000069  00000-0  00000+0 0  9990",
        "TLE_LINE2": "2 43107  54.6875 316.5747 0005000  75.8002 284.2590  1.86232483 49721"
    }
]